[{"OBJECT_NAME":"ONEWEB-0024","OBJECT_ID":"2020-008G","EPOCH":"2026-03-09T22:22:49.040256","MEAN_MOTION":13.10374818,"ECCENTRICITY":0.00018452,"INCLINATION":87.8785,"RA_OF_ASC_NODE":56.0116,"ARG_OF_PERICENTER":86.5092,"MEAN_ANOMALY":273.6246,"EPHEMERIS_TYPE":0,"CLASSIFICATION_TYPE":"U","NORAD_CAT_ID":45137,"ELEMENT_SET_NO":999,"REV_AT_EPOCH":29524,"BSTAR":0.00046105578,"MEAN_MOTION_DOT":1.74e-6,"MEAN_MOTION_DDOT":0},{"OBJECT_NAME":"UNKNOWN","OBJECT_ID":"","EPOCH":"2026-03-08T20:46:11.910432","MEAN_MOTION":13.866465,"ECCENTRICITY":0.0472183,"INCLINATION":61.2237,"RA_OF_ASC_NODE":15.6757,"ARG_OF_PERICENTER":280.976,"MEAN_ANOMALY":73.8509,"EPHEMERIS_TYPE":0,"CLASSIFICATION_TYPE":"U","NORAD_CAT_ID":87071,"ELEMENT_SET_NO":999,"REV_AT_EPOCH":61442,"BSTAR":0.002239,"MEAN_MOTION_DOT":6.216e-5,"MEAN_MOTION_DDOT":0}]
